{"fetched_at":"2026-07-24T07:06:08.057Z","source":"https://celestrak.org/NORAD/elements/gp.php?GROUP=oneweb&FORMAT=JSON","constellation":"oneweb","records":[{"OBJECT_NAME":"ONEWEB-0520","OBJECT_ID":"2022-138AB","EPOCH":"2026-07-23T16:09:53.844768","CLASSIFICATION_TYPE":"U","MEAN_MOTION":13.19724833,"ECCENTRICITY":0.0002192,"INCLINATION":87.9187,"RA_OF_ASC_NODE":297.7033,"ARG_OF_PERICENTER":106.7272,"MEAN_ANOMALY":253.4101,"EPHEMERIS_TYPE":0,"NORAD_CAT_ID":54138,"ELEMENT_SET_NO":999,"REV_AT_EPOCH":18163,"BSTAR":0.000022718,"MEAN_MOTION_DOT":2.2e-7,"MEAN_MOTION_DDOT":0},{"OBJECT_NAME":"ONEWEB-0521","OBJECT_ID":"2022-138AC","EPOCH":"2026-07-23T16:57:38.488608","CLASSIFICATION_TYPE":"U","MEAN_MOTION":13.19724154,"ECCENTRICITY":0.0001797,"INCLINATION":87.9196,"RA_OF_ASC_NODE":297.6867,"ARG_OF_PERICENTER":98.405,"MEAN_ANOMALY":261.7287,"EPHEMERIS_TYPE":0,"NORAD_CAT_ID":54139,"ELEMENT_SET_NO":999,"REV_AT_EPOCH":18158,"BSTAR":-0.00019136,"MEAN_MOTION_DOT":-6.4e-7,"MEAN_MOTION_DDOT":0},{"OBJECT_NAME":"ONEWEB-0522","OBJECT_ID":"2022-138AD","EPOCH":"2026-07-23T16:28:05.153664","CLASSIFICATION_TYPE":"U","MEAN_MOTION":13.1972403,"ECCENTRICITY":0.0002042,"INCLINATION":87.9192,"RA_OF_ASC_NODE":297.6932,"ARG_OF_PERICENTER":105.0191,"MEAN_ANOMALY":255.1168,"EPHEMERIS_TYPE":0,"NORAD_CAT_ID":54140,"ELEMENT_SET_NO":999,"REV_AT_EPOCH":18162,"BSTAR":0.000091829,"MEAN_MOTION_DOT":5e-7,"MEAN_MOTION_DDOT":0},{"OBJECT_NAME":"ONEWEB-0523","OBJECT_ID":"2022-138AE","EPOCH":"2026-07-23T11:14:23.895168","CLASSIFICATION_TYPE":"U","MEAN_MOTION":13.20769774,"ECCENTRICITY":0.0001953,"INCLINATION":87.9176,"RA_OF_ASC_NODE":267.2111,"ARG_OF_PERICENTER":73.8219,"MEAN_ANOMALY":286.3129,"EPHEMERIS_TYPE":0,"NORAD_CAT_ID":54141,"ELEMENT_SET_NO":999,"REV_AT_EPOCH":18409,"BSTAR":-0.00014049,"MEAN_MOTION_DOT":-4.4e-7,"MEAN_MOTION_DDOT":0},{"OBJECT_NAME":"ONEWEB-0524","OBJECT_ID":"2022-138AF","EPOCH":"2026-07-23T12:48:57.675168","CLASSIFICATION_TYPE":"U","MEAN_MOTION":13.20735155,"ECCENTRICITY":0.0002897,"INCLINATION":87.9175,"RA_OF_ASC_NODE":267.1948,"ARG_OF_PERICENTER":82.9604,"MEAN_ANOMALY":277.1859,"EPHEMERIS_TYPE":0,"NORAD_CAT_ID":54142,"ELEMENT_SET_NO":999,"REV_AT_EPOCH":18410,"BSTAR":0.017857,"MEAN_MOTION_DOT":0.00007276,"MEAN_MOTION_DDOT":0},{"OBJECT_NAME":"ONEWEB-0525","OBJECT_ID":"2022-138AG","EPOCH":"2026-07-23T16:55:23.014272","CLASSIFICATION_TYPE":"U","MEAN_MOTION":13.19724064,"ECCENTRICITY":0.0002317,"INCLINATION":87.9187,"RA_OF_ASC_NODE":297.6963,"ARG_OF_PERICENTER":106.1303,"MEAN_ANOMALY":254.0085,"EPHEMERIS_TYPE":0,"NORAD_CAT_ID":54143,"ELEMENT_SET_NO":999,"REV_AT_EPOCH":18164,"BSTAR":-0.000087238,"MEAN_MOTION_DOT":-2.2e-7,"MEAN_MOTION_DDOT":0},{"OBJECT_NAME":"ONEWEB-0526","OBJECT_ID":"2022-138AH","EPOCH":"2026-07-23T06:48:05.481792","CLASSIFICATION_TYPE":"U","MEAN_MOTION":13.19725094,"ECCENTRICITY":0.0002174,"INCLINATION":87.9189,"RA_OF_ASC_NODE":297.7805,"ARG_OF_PERICENTER":101.6202,"MEAN_ANOMALY":258.5175,"EPHEMERIS_TYPE":0,"NORAD_CAT_ID":54144,"ELEMENT_SET_NO":999,"REV_AT_EPOCH":18156,"BSTAR":0.00012796,"MEAN_MOTION_DOT":6.4e-7,"MEAN_MOTION_DDOT":0},{"OBJECT_NAME":"ONEWEB-0529","OBJECT_ID":"2022-138AJ","EPOCH":"2026-07-23T15:58:31.187136","CLASSIFICATION_TYPE":"U","MEAN_MOTION":13.19726441,"ECCENTRICITY":0.0002184,"INCLINATION":87.9182,"RA_OF_ASC_NODE":297.7111,"ARG_OF_PERICENTER":105.186,"MEAN_ANOMALY":254.9515,"EPHEMERIS_TYPE":0,"NORAD_CAT_ID":54145,"ELEMENT_SET_NO":999,"REV_AT_EPOCH":18163,"BSTAR":-0.000091166,"MEAN_MOTION_DOT":-2.4e-7,"MEAN_MOTION_DDOT":0},{"OBJECT_NAME":"ONEWEB-0531","OBJECT_ID":"2022-138AK","EPOCH":"2026-07-23T14:18:38.173824","CLASSIFICATION_TYPE":"U","MEAN_MOTION":13.20770029,"ECCENTRICITY":0.0002275,"INCLINATION":87.9175,"RA_OF_ASC_NODE":267.1797,"ARG_OF_PERICENTER":75.2768,"MEAN_ANOMALY":284.8617,"EPHEMERIS_TYPE":0,"NORAD_CAT_ID":54146,"ELEMENT_SET_NO":999,"REV_AT_EPOCH":18411,"BSTAR":0.000096157,"MEAN_MOTION_DOT":5.2e-7,"MEAN_MOTION_DDOT":0},{"OBJECT_NAME":"ONEWEB-0535","OBJECT_ID":"2022-138AL","EPOCH":"2026-07-23T07:40:23.439072","CLASSIFICATION_TYPE":"U","MEAN_MOTION":13.19723798,"ECCENTRICITY":0.0001859,"INCLINATION":87.9195,"RA_OF_ASC_NODE":297.7672,"ARG_OF_PERICENTER":91.6269,"MEAN_ANOMALY":268.5077,"EPHEMERIS_TYPE":0,"NORAD_CAT_ID":54147,"ELEMENT_SET_NO":999,"REV_AT_EPOCH":18160,"BSTAR":-0.00010319,"MEAN_MOTION_DOT":-2.8e-7,"MEAN_MOTION_DDOT":0},{"OBJECT_NAME":"ONEWEB-0536","OBJECT_ID":"2022-138AM","EPOCH":"2026-07-23T04:53:47.633856","CLASSIFICATION_TYPE":"U","MEAN_MOTION":13.20770048,"ECCENTRICITY":0.0002482,"INCLINATION":87.9162,"RA_OF_ASC_NODE":267.2761,"ARG_OF_PERICENTER":74.2682,"MEAN_ANOMALY":285.8725,"EPHEMERIS_TYPE":0,"NORAD_CAT_ID":54148,"ELEMENT_SET_NO":999,"REV_AT_EPOCH":18405,"BSTAR":0.00010614,"MEAN_MOTION_DOT":5.6e-7,"MEAN_MOTION_DDOT":0},{"OBJECT_NAME":"ONEWEB-0527","OBJECT_ID":"2022-166A","EPOCH":"2026-07-23T08:37:42.058848","CLASSIFICATION_TYPE":"U","MEAN_MOTION":13.21827632,"ECCENTRICITY":0.0002079,"INCLINATION":87.9223,"RA_OF_ASC_NODE":236.7967,"ARG_OF_PERICENTER":96.0603,"MEAN_ANOMALY":264.0768,"EPHEMERIS_TYPE":0,"NORAD_CAT_ID":54642,"ELEMENT_SET_NO":999,"REV_AT_EPOCH":17631,"BSTAR":0.000022754,"MEAN_MOTION_DOT":2.2e-7,"MEAN_MOTION_DDOT":0},{"OBJECT_NAME":"ONEWEB-0528","OBJECT_ID":"2022-166B","EPOCH":"2026-07-23T08:38:55.567104","CLASSIFICATION_TYPE":"U","MEAN_MOTION":13.21825996,"ECCENTRICITY":0.0002234,"INCLINATION":87.9226,"RA_OF_ASC_NODE":236.7994,"ARG_OF_PERICENTER":99.0037,"MEAN_ANOMALY":261.1349,"EPHEMERIS_TYPE":0,"NORAD_CAT_ID":54643,"ELEMENT_SET_NO":999,"REV_AT_EPOCH":17632,"BSTAR":0.000014655,"MEAN_MOTION_DOT":1.9e-7,"MEAN_MOTION_DDOT":0},{"OBJECT_NAME":"ONEWEB-0539","OBJECT_ID":"2022-166C","EPOCH":"2026-07-23T04:06:25.435008","CLASSIFICATION_TYPE":"U","MEAN_MOTION":13.21823389,"ECCENTRICITY":0.0001852,"INCLINATION":87.9236,"RA_OF_ASC_NODE":236.8115,"ARG_OF_PERICENTER":97.4397,"MEAN_ANOMALY":262.6948,"EPHEMERIS_TYPE":0,"NORAD_CAT_ID":54644,"ELEMENT_SET_NO":999,"REV_AT_EPOCH":17629,"BSTAR":-0.00014789,"MEAN_MOTION_DOT":-4.8e-7,"MEAN_MOTION_DDOT":0},{"OBJECT_NAME":"ONEWEB-0540","OBJECT_ID":"2022-166D","EPOCH":"2026-07-23T04:16:18.792192","CLASSIFICATION_TYPE":"U","MEAN_MOTION":13.21824467,"ECCENTRICITY":0.0001989,"INCLINATION":87.9228,"RA_OF_ASC_NODE":236.8378,"ARG_OF_PERICENTER":95.4175,"MEAN_ANOMALY":264.7185,"EPHEMERIS_TYPE":0,"NORAD_CAT_ID":54645,"ELEMENT_SET_NO":999,"REV_AT_EPOCH":17628,"BSTAR":-0.000070095,"MEAN_MOTION_DOT":-1.6e-7,"MEAN_MOTION_DDOT":0},{"OBJECT_NAME":"ONEWEB-0542","OBJECT_ID":"2022-166E","EPOCH":"2026-07-23T02:31:57.541440","CLASSIFICATION_TYPE":"U","MEAN_MOTION":13.21826375,"ECCENTRICITY":0.00017802,"INCLINATION":87.9237,"RA_OF_ASC_NODE":236.8237,"ARG_OF_PERICENTER":97.7944,"MEAN_ANOMALY":262.3392,"EPHEMERIS_TYPE":0,"NORAD_CAT_ID":54646,"ELEMENT_SET_NO":999,"REV_AT_EPOCH":17628,"BSTAR":0.00013558854,"MEAN_MOTION_DOT":6.9e-7,"MEAN_MOTION_DDOT":0}]}
